GLOBAL-2                
1 43812U 18099BG  26162.63609056  .00003020  00000+0  19667-3 0  9993
2 43812  97.3564 199.3803 0006466 158.3043 201.8462 15.08641288411072
