[
  {
    "OBJECT_NAME": "GLOBAL-2",
    "OBJECT_ID": "2018-099BG",
    "EPOCH": "2026-06-11T15:15:58.224000",
    "MEAN_MOTION": 15.08641288,
    "ECCENTRICITY": 0.0006466,
    "INCLINATION": 97.3564,
    "RA_OF_ASC_NODE": 199.3803,
    "ARG_OF_PERICENTER": 158.3043,
    "MEAN_ANOMALY": 201.8462,
    "EPHEMERIS_TYPE": 0,
    "CLASSIFICATION_TYPE": "U",
    "NORAD_CAT_ID": 43812,
    "ELEMENT_SET_NO": 999,
    "REV_AT_EPOCH": 41107,
    "BSTAR": 0.00019667000000000003,
    "MEAN_MOTION_DOT": 0.0000302,
    "MEAN_MOTION_DDOT": 0
  }
]
